CCSDS_OMM_VERS = 2.0
CREATION_DATE  = 
ORIGINATOR     = 

OBJECT_NAME    = SILVERSAT
OBJECT_ID      = 1998-067XV
CENTER_NAME    = EARTH
REF_FRAME      = TEME
TIME_SYSTEM    = UTC
MEAN_ELEMENT_THEORY = SGP/SGP4

EPOCH          = 2026-02-11T16:48:33.339168
MEAN_MOTION    = 15.63847385
ECCENTRICITY   = .00025233
INCLINATION    = 51.6264
RA_OF_ASC_NODE = 197.1110
ARG_OF_PERICENTER = 274.1167
MEAN_ANOMALY   = 85.9539

EPHEMERIS_TYPE = 0
CLASSIFICATION_TYPE = U
NORAD_CAT_ID   = 66909
ELEMENT_SET_NO = 999
REV_AT_EPOCH   = 1111
BSTAR          = .14215208E-2
MEAN_MOTION_DOT = .137849E-2
MEAN_MOTION_DDOT = 0

CCSDS_OMM_VERS = 2.0
CREATION_DATE  = 
ORIGINATOR     = 

OBJECT_NAME    = ISS OBJECT XW
OBJECT_ID      = 1998-067XW
CENTER_NAME    = EARTH
REF_FRAME      = TEME
TIME_SYSTEM    = UTC
MEAN_ELEMENT_THEORY = SGP/SGP4

EPOCH          = 2026-02-11T11:06:27.313632
MEAN_MOTION    = 15.62201503
ECCENTRICITY   = .00015189
INCLINATION    = 51.6249
RA_OF_ASC_NODE = 198.5199
ARG_OF_PERICENTER = 308.9215
MEAN_ANOMALY   = 51.1644

EPHEMERIS_TYPE = 0
CLASSIFICATION_TYPE = U
NORAD_CAT_ID   = 66910
ELEMENT_SET_NO = 999
REV_AT_EPOCH   = 1107
BSTAR          = .13239129E-2
MEAN_MOTION_DOT = .120044E-2
MEAN_MOTION_DDOT = 0

CCSDS_OMM_VERS = 2.0
CREATION_DATE  = 
ORIGINATOR     = 

OBJECT_NAME    = ISS OBJECT XX
OBJECT_ID      = 1998-067XX
CENTER_NAME    = EARTH
REF_FRAME      = TEME
TIME_SYSTEM    = UTC
MEAN_ELEMENT_THEORY = SGP/SGP4

EPOCH          = 2026-02-12T10:25:14.035008
MEAN_MOTION    = 15.65452637
ECCENTRICITY   = .0003296
INCLINATION    = 51.6233
RA_OF_ASC_NODE = 193.0014
ARG_OF_PERICENTER = 303.1833
MEAN_ANOMALY   = 56.8846

EPHEMERIS_TYPE = 0
CLASSIFICATION_TYPE = U
NORAD_CAT_ID   = 66911
ELEMENT_SET_NO = 999
REV_AT_EPOCH   = 1122
BSTAR          = .16656E-2
MEAN_MOTION_DOT = .17303E-2
MEAN_MOTION_DDOT = 0

CCSDS_OMM_VERS = 2.0
CREATION_DATE  = 
ORIGINATOR     = 

OBJECT_NAME    = ISS OBJECT XY
OBJECT_ID      = 1998-067XY
CENTER_NAME    = EARTH
REF_FRAME      = TEME
TIME_SYSTEM    = UTC
MEAN_ELEMENT_THEORY = SGP/SGP4

EPOCH          = 2026-02-12T10:16:15.587616
MEAN_MOTION    = 15.59344133
ECCENTRICITY   = .0000354
INCLINATION    = 51.6279
RA_OF_ASC_NODE = 194.4731
ARG_OF_PERICENTER = 282.3599
MEAN_ANOMALY   = 77.7354

EPHEMERIS_TYPE = 0
CLASSIFICATION_TYPE = U
NORAD_CAT_ID   = 66912
ELEMENT_SET_NO = 999
REV_AT_EPOCH   = 1120
BSTAR          = .11012E-2
MEAN_MOTION_DOT = .89002E-3
MEAN_MOTION_DDOT = 0

CCSDS_OMM_VERS = 2.0
CREATION_DATE  = 
ORIGINATOR     = 

OBJECT_NAME    = ISS OBJECT XZ
OBJECT_ID      = 1998-067XZ
CENTER_NAME    = EARTH
REF_FRAME      = TEME
TIME_SYSTEM    = UTC
MEAN_ELEMENT_THEORY = SGP/SGP4

EPOCH          = 2026-02-12T11:11:45.429792
MEAN_MOTION    = 15.49783798
ECCENTRICITY   = .0010767
INCLINATION    = 51.6302
RA_OF_ASC_NODE = 196.9761
ARG_OF_PERICENTER = 104.8798
MEAN_ANOMALY   = 255.3384

EPHEMERIS_TYPE = 0
CLASSIFICATION_TYPE = U
NORAD_CAT_ID   = 67683
ELEMENT_SET_NO = 999
REV_AT_EPOCH   = 87
BSTAR          = .71646E-3
MEAN_MOTION_DOT = .40412E-3
MEAN_MOTION_DDOT = 0

CCSDS_OMM_VERS = 2.0
CREATION_DATE  = 
ORIGINATOR     = 

OBJECT_NAME    = GXIBA-1
OBJECT_ID      = 1998-067YA
CENTER_NAME    = EARTH
REF_FRAME      = TEME
TIME_SYSTEM    = UTC
MEAN_ELEMENT_THEORY = SGP/SGP4

EPOCH          = 2026-02-12T11:08:18.844800
MEAN_MOTION    = 15.50485435
ECCENTRICITY   = .0012601
INCLINATION    = 51.6298
RA_OF_ASC_NODE = 196.9618
ARG_OF_PERICENTER = 98.9374
MEAN_ANOMALY   = 261.3042

EPHEMERIS_TYPE = 0
CLASSIFICATION_TYPE = U
NORAD_CAT_ID   = 67684
ELEMENT_SET_NO = 999
REV_AT_EPOCH   = 87
BSTAR          = .1301E-2
MEAN_MOTION_DOT = .76032E-3
MEAN_MOTION_DDOT = 0

CCSDS_OMM_VERS = 2.0
CREATION_DATE  = 
ORIGINATOR     = 

OBJECT_NAME    = CORAL
OBJECT_ID      = 1998-067YB
CENTER_NAME    = EARTH
REF_FRAME      = TEME
TIME_SYSTEM    = UTC
MEAN_ELEMENT_THEORY = SGP/SGP4

EPOCH          = 2026-02-12T11:11:01.737312
MEAN_MOTION    = 15.49916259
ECCENTRICITY   = .0012714
INCLINATION    = 51.6302
RA_OF_ASC_NODE = 196.9730
ARG_OF_PERICENTER = 100.4250
MEAN_ANOMALY   = 259.8173

EPHEMERIS_TYPE = 0
CLASSIFICATION_TYPE = U
NORAD_CAT_ID   = 67685
ELEMENT_SET_NO = 999
REV_AT_EPOCH   = 87
BSTAR          = .80641E-3
MEAN_MOTION_DOT = .45832E-3
MEAN_MOTION_DDOT = 0

CCSDS_OMM_VERS = 2.0
CREATION_DATE  = 
ORIGINATOR     = 

OBJECT_NAME    = ISS OBJECT YC
OBJECT_ID      = 1998-067YC
CENTER_NAME    = EARTH
REF_FRAME      = TEME
TIME_SYSTEM    = UTC
MEAN_ELEMENT_THEORY = SGP/SGP4

EPOCH          = 2026-02-12T11:10:27.925536
MEAN_MOTION    = 15.50049549
ECCENTRICITY   = .0007826
INCLINATION    = 51.6304
RA_OF_ASC_NODE = 196.9720
ARG_OF_PERICENTER = 75.5097
MEAN_ANOMALY   = 284.6760

EPHEMERIS_TYPE = 0
CLASSIFICATION_TYPE = U
NORAD_CAT_ID   = 67686
ELEMENT_SET_NO = 999
REV_AT_EPOCH   = 87
BSTAR          = .9389E-3
MEAN_MOTION_DOT = .53641E-3
MEAN_MOTION_DDOT = 0

CCSDS_OMM_VERS = 2.0
CREATION_DATE  = 
ORIGINATOR     = 

OBJECT_NAME    = LEOPARD
OBJECT_ID      = 1998-067YD
CENTER_NAME    = EARTH
REF_FRAME      = TEME
TIME_SYSTEM    = UTC
MEAN_ELEMENT_THEORY = SGP/SGP4

EPOCH          = 2026-02-12T11:11:19.635072
MEAN_MOTION    = 15.49864158
ECCENTRICITY   = .0007881
INCLINATION    = 51.6306
RA_OF_ASC_NODE = 196.9748
ARG_OF_PERICENTER = 77.6214
MEAN_ANOMALY   = 282.5656

EPHEMERIS_TYPE = 0
CLASSIFICATION_TYPE = U
NORAD_CAT_ID   = 67687
ELEMENT_SET_NO = 999
REV_AT_EPOCH   = 79
BSTAR          = .77458E-3
MEAN_MOTION_DOT = .43828E-3
MEAN_MOTION_DDOT = 0

CCSDS_OMM_VERS = 2.0
CREATION_DATE  = 
ORIGINATOR     = 

OBJECT_NAME    = ISS OBJECT YE
OBJECT_ID      = 1998-067YE
CENTER_NAME    = EARTH
REF_FRAME      = TEME
TIME_SYSTEM    = UTC
MEAN_ELEMENT_THEORY = SGP/SGP4

EPOCH          = 2026-02-12T11:10:38.392896
MEAN_MOTION    = 15.49994492
ECCENTRICITY   = .0007768
INCLINATION    = 51.6308
RA_OF_ASC_NODE = 196.9720
ARG_OF_PERICENTER = 76.3911
MEAN_ANOMALY   = 283.7943

EPHEMERIS_TYPE = 0
CLASSIFICATION_TYPE = U
NORAD_CAT_ID   = 67688
ELEMENT_SET_NO = 999
REV_AT_EPOCH   = 79
BSTAR          = .85915E-3
MEAN_MOTION_DOT = .48919E-3
MEAN_MOTION_DDOT = 0

